H1 CPF  1  DLR 2021 12 17 10  8512 technosat            
H2  1704205 6203    42829 2021 12 17 00 00 00 2021 12 24 00 00 00    60 1 1  0 0 0
H9
10 0 59570  28800.000000  0       2385547.303       -667004.084       6518705.345
10 0 59570  28860.000000  0       1953083.370       -727082.293       6654330.173
10 0 59570  28920.000000  0       1511937.839       -780290.706       6761860.287
10 0 59570  28980.000000  0       1064021.413       -826338.724       6840842.554
10 0 59570  29040.000000  0        611275.161       -864982.470       6890943.172
10 0 59570  29100.000000  0        155662.232       -896026.017       6911949.003
10 0 59570  29160.000000  0       -300840.573       -919322.368       6903768.406
10 0 59570  29220.000000  0       -756251.220       -934774.158       6866431.643
10 0 59570  29280.000000  0      -1208590.947       -942334.079       6800090.831
10 0 59570  29340.000000  0      -1655892.740       -942005.011       6705019.391
10 0 59570  29400.000000  0      -2096209.754       -933839.888       6581611.058
10 0 59570  29460.000000  0      -2527623.686       -917941.306       6430378.472
10 0 59570  29520.000000  0      -2948253.096       -894460.824       6251951.358
10 0 59570  29580.000000  0      -3356261.698       -863598.011       6047074.195
10 0 59570  29640.000000  0      -3749866.474       -825599.261       5816603.386
10 0 59570  29700.000000  0      -4127345.603       -780756.335       5561503.976
10 0 59570  29760.000000  0      -4487046.237       -729404.632       5282845.895
10 0 59570  29820.000000  0      -4827391.954       -671921.197       4981799.658
10 0 59570  29880.000000  0      -5146889.913       -608722.495       4659631.706
10 0 59570  29940.000000  0      -5444137.742       -540261.966       4317699.251
10 0 59570  30000.000000  0      -5717829.968       -467027.321       3957444.682
10 0 59570  30060.000000  0      -5966764.052       -389537.651       3580389.644
10 0 59570  30120.000000  0      -6189846.044       -308340.348       3188128.747
10 0 59570  30180.000000  0      -6386095.810       -224007.816       2782322.892
10 0 59570  30240.000000  0      -6554651.764       -137134.002       2364692.202
10 0 59570  30300.000000  0      -6694775.005        -48330.813       1937008.618
10 0 59570  30360.000000  0      -6805852.896         41775.569       1501088.238
10 0 59570  30420.000000  0      -6887402.034        132548.487       1058783.405
10 0 59570  30480.000000  0      -6939070.600        223344.678        611974.601
10 0 59570  30540.000000  0      -6960640.063        313518.205        162562.171
10 0 59570  30600.000000  0      -6952026.221        402424.433       -287542.056
10 0 59570  30660.000000  0      -6913279.562        489423.991       -736423.225
10 0 59570  30720.000000  0      -6844584.929        573886.699      -1182171.899
10 0 59570  30780.000000  0      -6746260.543        655195.445      -1622892.423
10 0 59570  30840.000000  0      -6618756.458        732749.982      -2056711.172
10 0 59570  30900.000000  0      -6462652.462        805970.663      -2481784.828
10 0 59570  30960.000000  0      -6278655.211        874302.059      -2896308.588
10 0 59570  31020.000000  0      -6067594.607        937216.430      -3298524.069
10 0 59570  31080.000000  0      -5830419.649        994216.993      -3686726.828
10 0 59570  31140.000000  0      -5568193.835       1044841.038      -4059273.645
10 0 59570  31200.000000  0      -5282089.999       1088662.838      -4414589.508
10 0 59570  31260.000000  0      -4973384.670       1125296.329      -4751174.241
10 0 59570  31320.000000  0      -4643451.974       1154397.559      -5067608.727
10 0 59570  31380.000000  0      -4293757.160       1175666.905      -5362560.717
10 0 59570  31440.000000  0      -3925849.796       1188851.035      -5634790.238
10 0 59570  31500.000000  0      -3541356.609       1193744.589      -5883154.610
10 0 59570  31560.000000  0      -3141974.017       1190191.560      -6106612.968
10 0 59570  31620.000000  0      -2729460.493       1178086.429      -6304230.305
10 0 59570  31680.000000  0      -2305628.691       1157375.079      -6475181.183
10 0 59570  31740.000000  0      -1872337.291       1128055.429      -6618752.881
10 0 59570  31800.000000  0      -1431482.798       1090177.729      -6734348.004
10 0 59570  31860.000000  0       -984991.280       1043844.588      -6821486.702
10 0 59570  31920.000000  0       -534810.003        989210.728      -6879808.403
10 0 59570  31980.000000  0        -82899.088        926482.496      -6909073.089
10 0 59570  32040.000000  0        368776.834        855917.081      -6909162.225
10 0 59570  32100.000000  0        818257.078        777821.438      -6880079.314
10 0 59570  32160.000000  0       1263593.441        692550.950      -6821949.819
10 0 59570  32220.000000  0       1702858.543        600507.824      -6735020.538
10 0 59570  32280.000000  0       2134154.012        502139.218      -6619658.585
10 0 59570  32340.000000  0       2555618.613        397935.159      -6476349.992
10 0 59570  32400.000000  0       2965436.302        288426.218      -6305697.747
10 0 59570  32460.000000  0       3361843.971        174180.891      -6108419.355
10 0 59570  32520.000000  0       3743138.986         55802.750      -5885344.026
10 0 59570  32580.000000  0       4107686.505        -66072.578      -5637409.387
10 0 59570  32640.000000  0       4453926.544       -190780.612      -5365657.861
10 0 59570  32700.000000  0       4780380.869       -317631.461      -5071232.553
10 0 59570  32760.000000  0       5085659.513       -445913.441      -4755372.600
10 0 59570  32820.000000  0       5368466.854       -574896.831      -4419408.134
10 0 59570  32880.000000  0       5627607.335       -703837.777      -4064754.866
10 0 59570  32940.000000  0       5861990.778       -831982.312      -3692908.274
10 0 59570  33000.000000  0       6070637.217       -958570.502      -3305437.415
10 0 59570  33060.000000  0       6252681.276      -1082840.667      -2903978.389
10 0 59570  33120.000000  0       6407376.048      -1204033.649      -2490227.468
10 0 59570  33180.000000  0       6534096.423      -1321397.105      -2065933.895
10 0 59570  33240.000000  0       6632341.852      -1434189.815      -1632892.439
10 0 59570  33300.000000  0       6701738.506      -1541685.955      -1192935.702
10 0 59570  33360.000000  0       6742040.853      -1643179.312       -747926.254
10 0 59570  33420.000000  0       6753132.645      -1737987.454       -299748.625
10 0 59570  33480.000000  0       6735027.319      -1825455.804        149698.863
10 0 59570  33540.000000  0       6687867.722      -1904961.587        598512.375
10 0 59570  33600.000000  0       6611925.172      -1975917.585       1044790.829
10 0 59570  33660.000000  0       6507597.949      -2037775.759       1486644.101
10 0 59570  33720.000000  0       6375409.213      -2090030.712       1922201.248
10 0 59570  33780.000000  0       6216004.265      -2132222.890       2349618.620
10 0 59570  33840.000000  0       6030147.263      -2163941.521       2767087.815
10 0 59570  33900.000000  0       5818717.346      -2184827.321       3172843.451
10 0 59570  33960.000000  0       5582704.223      -2194574.959       3565170.674
10 0 59570  34020.000000  0       5323203.307      -2192935.228       3942412.406
10 0 59570  34080.000000  0       5041410.376      -2179716.909       4302976.282
10 0 59570  34140.000000  0       4738615.890      -2154788.328       4645341.277
10 0 59570  34200.000000  0       4416198.932      -2118078.623       4968064.073
10 0 59570  34260.000000  0       4075620.701      -2069578.729       5269785.090
10 0 59570  34320.000000  0       3718417.639      -2009342.043       5549234.071
10 0 59570  34380.000000  0       3346194.274      -1937484.733       5805235.205
10 0 59570  34440.000000  0       2960615.893      -1854185.728       6036711.801
10 0 59570  34500.000000  0       2563401.041      -1759686.423       6242690.600
10 0 59570  34560.000000  0       2156313.789      -1654290.090       6422305.670
10 0 59570  34620.000000  0       1741155.875      -1538360.963       6574801.817
10 0 59570  34680.000000  0       1319758.728      -1412323.002       6699537.598
10 0 59570  34740.000000  0        893975.384      -1276658.358       6795987.827
10 0 59570  34800.000000  0        465672.428      -1131905.532       6863745.607
10 0 59570  34860.000000  0         36721.889       -978657.251       6902523.935
10 0 59570  34920.000000  0       -391006.820       -817558.073       6912156.798
10 0 59570  34980.000000  0       -815654.898       -649301.753       6892599.897
10 0 59570  35040.000000  0      -1235382.152       -474628.292       6843930.894
10 0 59570  35100.000000  0      -1648374.862       -294320.739       6766349.153
10 0 59570  35160.000000  0      -2052853.505       -109201.757       6660175.070
10 0 59570  35220.000000  0      -2447080.382         79870.055       6525848.949
10 0 59570  35280.000000  0      -2829367.067        272004.072       6363929.392
10 0 59570  35340.000000  0      -3198081.660        466281.735       6175091.226
10 0 59570  35400.000000  0      -3551655.844        661760.850       5960123.001
10 0 59570  35460.000000  0      -3888591.717        857480.061       5719923.953
10 0 59570  35520.000000  0      -4207468.305       1052463.470       5455500.521
10 0 59570  35580.000000  0      -4506947.767       1245725.436       5167962.396
10 0 59570  35640.000000  0      -4785781.272       1436275.500       4858518.128
10 0 59570  35700.000000  0      -5042814.504       1623123.395       4528470.245
10 0 59570  35760.000000  0      -5276992.734       1805284.108       4179209.936
10 0 59570  35820.000000  0      -5487365.435       1981783.005       3812211.339
10 0 59570  35880.000000  0      -5673090.443       2151660.969       3429025.444
10 0 59570  35940.000000  0      -5833437.677       2313979.522       3031273.628
99
